P/2010 H3 (SOHO),e,23.2747,77.4340,25.8153,3.064611,0.1837135,0.98547861,0.0000,02/07.8828/2021,2000,g 20.0,2.0
# From MPC 73463
P/2010 H4 (Scotti),e,2.3197,44.7548,179.5674,6.587111,0.0582991,0.26809017,209.8608,04/30.0/2020,2000,g 10.5,4.0
# From MPC 74637
P/2010 H5 (Scotti),e,14.0724,24.8112,175.3497,7.154624,0.0515020,0.15429075,188.9330,04/30.0/2020,2000,g 13.0,2.0
# From MPC 98558
P/2010 J3 (McMillan),e,13.2909,106.4048,157.5605,8.966940,0.0367061,0.72759544,129.6084,04/30.0/2020,2000,g 11.0,4.0
# From MPC 84315
P/2010 JC81 (WISE),e,38.6803,30.8366,12.4620,8.113287,0.0426490,0.77632935,140.7173,04/30.0/2020,2000,g  9.0,4.0
# From MPC 74248
C/2010 L5 (WISE),e,146.9778,206.4943,214.4388,8.025419,0.0433513,0.90155703,159.0014,04/30.0/2020,2000,g 18.0,4.0
# From MPEC 2020-H67
C/2010 M1 (Gibbs),e,116.4579,66.4452,167.4696,1079,0.0000278,0.99258567,0.0000,12/08.6552/2010,2000,g  9.0,4.0
# From MPC 74248
P/2010 T2 (PANSTARRS),e,7.9477,59.2518,354.0914,5.496402,0.0764868,0.32176419,250.6147,04/30.0/2020,2000,g 11.5,4.0
# From MPC 98558
P/2010 TO20 (LINEAR-Grauer),e,2.4795,43.3011,266.7873,5.827215,0.0700668,0.05404044,294.5370,04/30.0/2020,2000,g  9.0,4.0
# From MPC 82316
P/2010 U1 (Boattini),e,8.2138,280.7218,85.8595,6.514579,0.0592754,0.24748092,222.4499,04/30.0/2020,2000,g  9.5,4.0
# From MPEC 2020-H67
C/2010 U3 (Boattini),e,55.5150,43.0477,88.0804,2805,0.0000066,0.99698873,0.0000,02/26.2544/2019,2000,g  1.0,4.0
# From MPC 79021
P/2010 UH55 (Spacewatch),e,8.0538,233.0589,225.1849,6.648736,0.0574904,0.56381683,189.6413,04/30.0/2020,2000,g 11.0,4.0
# From MPC 75009
P/2010 WK (LINEAR),e,11.3998,11.3093,41.0177,5.758591,0.0713230,0.68959240,249.7889,04/30.0/2020,2000,g 14.5,2.0
# From MPC 82317
P/2011 A2 (Scotti),e,4.4754,54.6731,94.5555,3.104626,0.1801731,0.49939179,255.3645,04/30.0/2020,2000,g 16.5,4.0
# From MPC 84021
P/2011 C2 (Gibbs),e,10.8864,12.1188,161.1027,7.413746,0.0488256,0.26927838,148.2799,04/30.0/2020,2000,g  9.0,4.0
# From MPC 79866
P/2011 FR143 (Lemmon),e,15.9952,190.9476,350.1670,6.854239,0.0549244,0.45149416,183.5926,04/30.0/2020,2000,g 14.0,2.0
# From MPC 82317
P/2011 JB15 (Spacewatch-Boattini),e,19.1458,153.6133,110.9177,7.351123,0.0494508,0.31848319,149.2814,04/30.0/2020,2000,g  9.0,4.0
# From MPEC 2020-H67
C/2011 KP36 (Spacewatch),e,18.9826,173.3224,180.6069,38.74342,0.0040870,0.87407242,5.8600,04/30.0/2020,2000,g  4.5,4.0
# From MPC 87913
P/2011 N1 (ASH),e,35.7046,77.6099,330.3544,6.251469,0.0630567,0.54330045,183.0600,04/30.0/2020,2000,g 11.5,4.0
# From MPC 75714
P/2011 NO1 (Elenin),e,15.2490,295.7913,263.8474,5.521993,0.0759557,0.77516876,257.0298,04/30.0/2020,2000,g 15.0,4.0
# From MPC 82318
P/2011 P1 (McNaught),e,5.6554,4.2454,348.8646,7.471896,0.0482567,0.32640183,172.5791,04/30.0/2020,2000,g  9.0,4.0
# From MPC 77806
P/2011 Q3 (McNaught),e,6.0556,32.0243,310.9572,4.970812,0.0889330,0.53233644,285.1497,04/30.0/2020,2000,g 13.5,4.0
# From MPC 90269
P/2011 R3 (Novichonok-Gerke),e,19.2382,189.7745,224.8587,4.782907,0.0942250,0.27138881,276.9470,04/30.0/2020,2000,g 11.0,4.0
# From MPC 98558
P/2011 S1 (Gibbs),e,2.6833,218.9235,192.6116,8.591698,0.0391368,0.19985706,81.6986,04/30.0/2020,2000,g  8.0,4.0
# From MPC115880
P/2011 U2 (Bressi),e,9.9946,263.6618,151.6908,4.928340,0.0900851,0.13136786,253.9361,04/30.0/2020,2000,g 10.0,4.0
# From MPC 79022
P/2011 UA134 (Spacewatch-PANSTARRS),e,10.4469,40.4472,32.4835,5.601493,0.0743444,0.62932526,229.4069,04/30.0/2020,2000,g 17.5,4.0
# From MPC 77406
P/2011 V1 (Boattini),e,7.3783,46.8619,269.2123,3.853857,0.1302749,0.55060178,75.0333,04/30.0/2020,2000,g 15.5,4.0
# From MPC 82718
P/2011 W1 (PANSTARRS),e,3.7186,161.7902,282.7290,4.659619,0.0979893,0.28684584,296.4234,04/30.0/2020,2000,g 11.5,4.0
# From MPC 79342
P/2011 Y2 (Boattini),e,6.3716,309.3668,131.9602,6.239580,0.0632370,0.70916819,188.1284,04/30.0/2020,2000,g 15.0,4.0
# From MPC 94669
P/2012 B1 (PANSTARRS),e,7.6179,36.1903,162.6019,6.525788,0.0591228,0.41026777,146.2705,04/30.0/2020,2000,g  9.0,4.0
# From MPC 78590
P/2012 C3 (PANSTARRS),e,9.0920,135.3677,344.9542,9.748681,0.0323806,0.63011148,359.9758,10/06.0/2011,2000,g 13.0,4.0
# From MPC 84931
P/2012 F2 (PANSTARRS),e,14.7321,227.0720,33.2185,6.327112,0.0619293,0.54305586,159.3851,04/30.0/2020,2000,g 12.0,4.0
# From MPC107683
C/2012 F3 (PANSTARRS),h,04/07.6502/2015,11.3333,164.5346,104.2803,1.004493,3.466870,2000,6.5,4.0
# From MPC 79344
P/2012 G1 (PANSTARRS),e,11.6925,282.5440,286.1149,4.172871,0.1156250,0.38072240,359.9500,06/01.0/2012,2000,g 15.0,4.0
# From MPC 80898
P/2012 K3 (Gibbs),e,13.1946,125.8099,172.1147,3.623901,0.1428695,0.42349601,36.6531,04/30.0/2020,2000,g 15.0,4.0
# From MPC112389
C/2012 LP26 (Palomar),h,08/18.6482/2015,25.3457,153.9342,145.3239,1.003404,6.543021,2000,6.5,4.0
# From MPC 88326
P/2012 NJ (La Sagra),e,84.6372,315.5610,338.3096,8.456730,0.0400775,0.84750778,115.3584,04/30.0/2020,2000,g 14.5,4.0
# From MPC 81470
P/2012 O1 (McNaught),e,7.4335,91.9851,238.2037,3.539479,0.1480114,0.59447373,62.8520,04/30.0/2020,2000,g 17.5,4.0
# From MPC 80899
P/2012 O2 (McNaught),e,24.4862,120.6798,183.3738,3.621844,0.1429912,0.53282377,51.4646,04/30.0/2020,2000,g 17.0,4.0
# From MPC 82720
P/2012 O3 (McNaught),e,16.6112,336.4047,344.6853,4.576279,0.1006782,0.64680706,283.5032,04/30.0/2020,2000,g 16.5,4.0
# From MPC 82720
P/2012 S2 (La Sagra),e,8.6874,51.1928,312.5127,4.409644,0.1064385,0.69107463,301.4717,04/30.0/2020,2000,g 17.0,4.0
# From MPC 82720
P/2012 SB6 (Lemmon),e,10.9289,8.2099,14.3958,3.825155,0.1317439,0.40476953,353.3488,04/30.0/2020,2000,g 14.0,4.0
# From MPC 82320
P/2012 T2 (PANSTARRS),e,12.5547,73.7356,310.4513,5.739602,0.0716773,0.16034206,184.0880,04/30.0/2020,2000,g 10.0,4.0
# From MPC 80900
P/2012 T3 (PANSTARRS),e,9.5684,114.4074,195.4237,6.153191,0.0645734,0.61706909,188.6910,04/30.0/2020,2000,g 15.0,4.0
# From MPC 87914
P/2012 TK8 (Tenagra),e,6.3406,288.9711,127.7611,4.131892,0.1173494,0.27433995,296.2746,04/30.0/2020,2000,g 13.0,4.0
# From MPC 82720
P/2012 U2 (PANSTARRS),e,10.7454,185.2602,228.3667,7.145195,0.0516039,0.49741625,140.9038,04/30.0/2020,2000,g 12.5,4.0
# From MPC 84024
P/2012 US27 (Siding Spring),e,39.3224,49.1680,0.8359,5.166010,0.0839404,0.64725114,222.5781,04/30.0/2020,2000,g 13.5,4.0
# From MPC 82721
P/2012 WA34 (Lemmon-PANSTARRS),e,6.1224,94.4999,352.8274,4.771777,0.0945549,0.34070186,250.4811,04/30.0/2020,2000,g 13.5,4.0
# From MPC 84024
P/2013 A2 (Scotti),e,3.3614,355.8179,134.5608,4.012758,0.1226139,0.45432629,324.2154,04/30.0/2020,2000,g 15.5,4.0
# From MPC 82721
P/2013 AL76 (Catalina),e,144.7931,145.9411,27.1439,6.498411,0.0594968,0.68607955,160.3711,04/30.0/2020,2000,g 16.0,4.0
# From MPC115880
C/2013 C2 (Tenagra),e,21.3377,247.5294,309.5365,16.01709,0.0153755,0.42831676,25.9868,04/30.0/2020,2000,g  4.0,4.0
# From MPC 88695
P/2013 EW90 (Tenagra),e,31.7860,160.3007,346.3763,4.116328,0.1180155,0.19496416,325.5461,04/30.0/2020,2000,g 12.0,4.0
# From MPC 91612
P/2013 G1 (Kowalski),e,5.4703,221.4235,51.3271,6.885053,0.0545561,0.51344326,127.0871,04/30.0/2020,2000,g 11.0,4.0
# From MPC 84025
P/2013 G4 (PANSTARRS),e,5.9161,339.6530,214.7295,4.438671,0.1053961,0.40980500,277.7444,04/30.0/2020,2000,g 15.0,4.0
# From MPC 91613
P/2013 J2 (McNaught),e,15.5358,289.4293,37.7114,6.223918,0.0634758,0.65726347,154.8182,04/30.0/2020,2000,g 13.0,4.0
# From MPC 87066
P/2013 J4 (PANSTARRS),e,5.0352,84.0011,118.7706,2.475100,0.2531133,0.23099371,359.9443,11/04.0/2013,2000,g 14.0,4.0
# From MPC 86229
P/2013 N3 (PANSTARRS),e,2.1725,17.5196,323.8199,7.390911,0.0490520,0.59278244,111.2107,04/30.0/2020,2000,g 13.0,4.0
# From MPC 85834
P/2013 N5 (PANSTARRS),e,23.4022,187.1763,176.8798,6.800656,0.0555748,0.73143459,138.6640,04/30.0/2020,2000,g 17.0,4.0
# From MPC 87479
P/2013 O2 (PANSTARRS),e,13.3161,207.1702,214.1898,3.791461,0.1335040,0.44685047,308.2636,04/30.0/2020,2000,g 14.0,4.0
# From MPC 85834
P/2013 P1 (PANSTARRS),e,18.7167,160.6459,138.0329,8.565145,0.0393190,0.60617713,102.8856,04/30.0/2020,2000,g 12.0,4.0
# From MPC 94671
P/2013 R3 (Catalina-PANSTARRS),e,0.8653,342.0034,11.1484,3.034051,0.1864961,0.27490592,95.1923,04/30.0/2020,2000,g 14.0,4.0
# From unp
P/2013 R3-A (Catalina-PANSTARRS),e,0.8647,341.9702,11.1874,3.033910,0.1865091,0.27487525,95.2218,04/30.0/2020,2000,g  9.0,4.0
# From MPEC 2015-M77
P/2013 R3-B (Catalina-PANSTARRS),e,0.8659,342.0261,11.1223,3.034127,0.1864891,0.27492101,95.1765,04/30.0/2020,2000,g  9.0,4.0
# From MPC 85835
P/2013 T1 (PANSTARRS),e,24.2603,10.0978,346.0632,5.862932,0.0694275,0.62319980,171.1411,04/30.0/2020,2000,g 16.5,4.0
# From MPC 86643
P/2013 T2 (Schwartz),e,9.4562,0.8243,345.4524,3.488108,0.1512931,0.50105402,22.9146,04/30.0/2020,2000,g 16.0,4.0
# From MPC 88696
P/2013 TL117 (Lemmon),e,9.3650,3.3153,112.2518,3.609119,0.1437482,0.68914856,325.7600,04/30.0/2020,2000,g 17.5,4.0
# From MPC110080
C/2013 US10 (Catalina),h,11/16.5461/2015,148.7923,186.3517,340.5731,1.000616,0.822536,2000,4.4,4.0
# From MPC111767
C/2013 V4 (Catalina),e,67.8762,55.6191,40.3466,3754,0.0000043,0.99861938,0.0000,10/05.6833/2015,2000,g  6.0,4.0
# From MPC 91613
P/2013 W1 (PANSTARRS),e,4.6954,117.8484,1.3035,3.490633,0.1511290,0.59281463,339.8511,04/30.0/2020,2000,g 17.5,4.0
# From MPC111767
C/2013 X1 (PANSTARRS),h,04/19.5761/2016,163.1913,131.5843,165.1344,1.000364,1.320573,2000,10.5,2.0
# From MPC101095
P/2013 YG46 (Spacewatch),e,7.8563,48.8838,242.4584,3.276689,0.1661694,0.45488606,197.0159,04/30.0/2020,2000,g 10.0,4.0
# From MPC 89728
P/2014 A2 (Hill),e,24.5494,106.6270,356.2863,5.925302,0.0683342,0.64585399,163.0073,04/30.0/2020,2000,g 15.0,4.0
# From MPC 92981
P/2014 A3 (PANSTARRS),e,13.6814,230.3085,212.4746,4.636523,0.0987223,0.24573500,253.1968,04/30.0/2020,2000,g 12.0,4.0
# From MPC108592
C/2014 A4 (SONEAR),e,121.3764,29.6803,356.5887,2921,0.0000062,0.99857095,0.0000,09/04.1126/2015,2000,g  6.0,4.0
# From MPC 96865
C/2014 AA52 (Catalina),h,02/26.8052/2015,105.1221,330.3231,292.1499,1.000057,2.001477,2000,10.0,4.0
# From MPEC 2020-H67
